NORAD_CAT_ID,OBJECT_NAME,OBJECT_TYPE,EPOCH,MEAN_MOTION,ECCENTRICITY,INCLINATION,RA_OF_ASC_NODE,ARG_OF_PERICENTER,MEAN_ANOMALY,BSTAR,MEAN_MOTION_DOT,MEAN_MOTION_DDOT,TLE_LINE0,TLE_LINE1,TLE_LINE2,SEMIMAJOR_AXIS,PERIOD,APOGEE,PERIGEE,DECAYED
50191.0,STARLINK-3273,PAYLOAD,2023-06-10 18:31:34,15.08840326,0.0001246,53.2166,81.3888,100.812,259.3012,3.6276e-05,2.9e-06,0.0,0 STARLINK-3273,1 50191U 21125AM  23161.77192428  .00000290  00000-0  36276-4 0  9999,2 50191  53.2166  81.3888 0001246 100.8120 259.3012 15.08840326 81965,6917.879,95.438,540.606,538.882,0.0
50191.0,STARLINK-3273,PAYLOAD,2023-06-11 12:00:48,15.08846247,0.000115,53.2166,78.1191,93.6395,266.4728,7.2869e-05,8.72e-06,0.0,0 STARLINK-3273,1 50191U 21125AM  23162.50055961  .00000872  00000-0  72869-4 0  9995,2 50191  53.2166  78.1191 0001150  93.6395 266.4728 15.08846247 85159,6917.861,95.437,540.522,538.931,0.0
50191.0,STARLINK-3273,PAYLOAD,2023-06-11 15:11:34,15.0884255,0.0001184,53.2172,77.5252,91.6666,268.4461,9.847e-05,1.28e-05,0.0,0 STARLINK-3273,1 50191U 21125AM  23162.63304172  .00001280  00000-0  98470-4 0  9990,2 50191  53.2172  77.5252 0001184  91.6666 268.4461 15.08842550 85174,6917.873,95.437,540.557,538.919,0.0
50191.0,STARLINK-3273,PAYLOAD,2023-06-12 00:43:53,15.08847859,0.0001175,53.2172,75.7401,95.8258,264.2868,0.00013986,1.939e-05,0.0,0 STARLINK-3273,1 50191U 21125AM  23163.03047611  .00001939  00000-0  13986-3 0  9996,2 50191  53.2172  75.7401 0001175  95.8258 264.2868 15.08847859 82150,6917.856,95.437,540.534,538.909,0.0
50191.0,STARLINK-3273,PAYLOAD,2023-06-13 03:45:27,15.08816212,0.0001306,53.2173,70.6857,105.3106,254.803,0.0003091,4.632e-05,0.0,0 STARLINK-3273,1 50191U 21125AM  23164.15657357  .00004632  00000-0  30910-3 0  9993,2 50191  53.2173  70.6857 0001306 105.3106 254.8030 15.08816212 82329,6917.953,95.439,540.722,538.915,0.0
50191.0,STARLINK-3273,PAYLOAD,2023-06-13 18:03:55,15.08840508,0.0001018,53.217,68.0084,97.035,263.0758,1.5715e-05,-3.8e-07,0.0,0 STARLINK-3273,1 50191U 21125AM  23164.75272391 -.00000038  00000-0  15715-4 0  9994,2 50191  53.2170  68.0084 0001018  97.0350 263.0758 15.08840508 82411,6917.879,95.438,540.448,539.04,0.0
50191.0,STARLINK-3273,PAYLOAD,2023-06-14 00:25:27,15.08848967,0.0001034,53.2173,66.8215,93.0369,267.0741,9.0891e-05,1.159e-05,0.0,0 STARLINK-3273,1 50191U 21125AM  23165.01767623  .00001159  00000-0  90891-4 0  9993,2 50191  53.2173  66.8215 0001034  93.0369 267.0741 15.08848967 82457,6917.853,95.437,540.433,539.003,0.0
50191.0,STARLINK-3273,PAYLOAD,2023-06-14 17:54:42,15.08835034,9.45e-05,53.2171,63.5508,93.0894,267.0207,1.2748e-05,-8.5e-07,0.0,0 STARLINK-3273,1 50191U 21125AM  23165.74632779 -.00000085  00000-0  12748-4 0  9999,2 50191  53.2171  63.5508 0000945  93.0894 267.0207 15.08835034 82567,6917.896,95.438,540.414,539.107,0.0
50191.0,STARLINK-3273,PAYLOAD,2023-06-14 19:30:05,15.08841478,0.0001007,53.2181,63.2514,85.2544,274.8563,7.4999e-05,9.06e-06,0.0,0 STARLINK-3273,1 50191U 21125AM  23165.81256198  .00000906  00000-0  74999-4 0  9991,2 50191  53.2181  63.2514 0001007  85.2544 274.8563 15.08841478 85650,6917.876,95.437,540.438,539.044,0.0
50191.0,STARLINK-3273,PAYLOAD,2023-06-15 01:51:36,15.08857218,9.16e-05,53.2173,62.0632,86.2194,273.8903,0.00019843,2.873e-05,0.0,0 STARLINK-3273,1 50191U 21125AM  23166.07750743  .00002873  00000-0  19843-3 0  9996,2 50191  53.2173  62.0632 0000916  86.2194 273.8903 15.08857218 82618,6917.828,95.436,540.326,539.059,0.0
50191.0,STARLINK-3273,PAYLOAD,2023-06-15 03:26:59,15.08858286,9.4e-05,53.2171,61.7655,85.8403,274.2697,0.00021218,3.092e-05,0.0,0 STARLINK-3273,1 50191U 21125AM  23166.14374644  .00003092  00000-0  21218-3 0  9999,2 50191  53.2171  61.7655 0000940  85.8403 274.2697 15.08858286 85706,6917.824,95.436,540.34,539.039,0.0
50191.0,STARLINK-3273,PAYLOAD,2023-06-15 17:45:29,15.08837075,0.0001307,53.2176,59.0878,89.907,270.2072,-3.5715e-05,-8.56e-06,0.0,0 STARLINK-3273,1 50191U 21125AM  23166.73992915 -.00000856  00000-0 -35715-4 0  9996,2 50191  53.2176  59.0878 0001307  89.9070 270.2072 15.08837075 82715,6917.889,95.438,540.658,538.85,0.0
50191.0,STARLINK-3273,PAYLOAD,2023-06-16 09:39:20,15.08846394,0.0001108,53.2179,56.1147,84.5909,275.5209,-6.1896e-06,-3.86e-06,0.0,0 STARLINK-3273,1 50191U 21125AM  23167.40232175 -.00000386  00000-0 -61896-5 0  9994,2 50191  53.2179  56.1147 0001108  84.5909 275.5209 15.08846394 82811,6917.861,95.437,540.492,538.959,0.0
50191.0,STARLINK-3273,PAYLOAD,2023-06-16 17:36:16,15.08848857,0.000113,53.2176,54.6284,87.2606,272.8515,-1.2977e-05,-4.94e-06,0.0,0 STARLINK-3273,1 50191U 21125AM  23167.73351938 -.00000494  00000-0 -12977-4 0  9994,2 50191  53.2176  54.6284 0001130  87.2606 272.8515 15.08848857 85945,6917.853,95.437,540.5,538.937,0.0
50191.0,STARLINK-3273,PAYLOAD,2023-06-17 01:33:11,15.08856762,0.0001191,53.2175,53.1413,88.6115,271.5014,0.0001558,2.194e-05,0.0,0 STARLINK-3273,1 50191U 21125AM  23168.06471448  .00002194  00000-0  15580-3 0  9999,2 50191  53.2175  53.1413 0001191  88.6115 271.5014 15.08856762 82917,6917.829,95.436,540.518,538.87,0.0
50191.0,STARLINK-3273,PAYLOAD,2023-06-17 09:30:08,15.08830921,0.000138,53.2154,51.6535,80.3203,279.7945,-2.8028e-05,-7.34e-06,0.0,0 STARLINK-3273,1 50191U 21125AM  23168.39592805 -.00000734  00000-0 -28028-4 0  9998,2 50191  53.2154  51.6535 0001380  80.3203 279.7945 15.08830921 82966,6917.908,95.438,540.728,538.818,0.0
50191.0,STARLINK-3273,PAYLOAD,2023-06-17 15:51:41,15.0882535,0.0002007,53.2167,50.4653,77.3648,282.7568,-2.2549e-05,-6.47e-06,0.0,0 STARLINK-3273,1 50191U 21125AM  23168.66089610 -.00000647  00000-0 -22549-4 0  9998,2 50191  53.2167  50.4653 0002007  77.3648 282.7568 15.08825350 83005,6917.925,95.438,541.179,538.402,0.0
50191.0,STARLINK-3273,PAYLOAD,2023-06-17 22:13:14,15.08827271,0.0002069,53.2164,49.2761,77.2498,282.8725,-2.0534e-05,-6.15e-06,0.0,0 STARLINK-3273,1 50191U 21125AM  23168.92585695 -.00000615  00000-0 -20534-4 0  9998,2 50191  53.2164  49.2761 0002069  77.2498 282.8725 15.08827271 86124,6917.919,95.438,541.216,538.353,0.0
50191.0,STARLINK-3273,PAYLOAD,2023-06-18 09:20:56,15.08826797,0.0001217,53.2166,47.1949,73.607,286.5056,0.00034916,5.271e-05,0.0,0 STARLINK-3273,1 50191U 21125AM  23169.38954296  .00005271  00000-0  34916-3 0  9995,2 50191  53.2166  47.1949 0001217  73.6070 286.5056 15.08826797 86198,6917.921,95.438,540.628,538.944,0.0
50191.0,STARLINK-3273,PAYLOAD,2023-06-18 18:53:15,15.08838393,0.0001213,53.2165,45.4107,70.0748,290.0375,0.0010305,0.0001615,0.0,0 STARLINK-3273,1 50191U 21125AM  23169.78698660  .00016150  00000-0  10305-2 0  9992,2 50191  53.2165  45.4107 0001213  70.0748 290.0375 15.08838393 86259,6917.885,95.438,540.589,538.911,0.0
50191.0,STARLINK-3273,PAYLOAD,2023-06-18 22:04:01,15.08846497,0.0001189,53.2165,44.8159,70.5554,289.5567,0.0011831,0.00018594,0.0,0 STARLINK-3273,1 50191U 21125AM  23169.91946581  .00018594  00000-0  11831-2 0  9994,2 50191  53.2165  44.8159 0001189  70.5554 289.5567 15.08846497 83191,6917.861,95.437,540.548,538.903,0.0
50191.0,STARLINK-3273,PAYLOAD,2023-06-19 10:47:06,15.08861481,0.0001206,53.2162,42.4373,68.3067,291.8053,0.0010111,0.0001585,0.0,0 STARLINK-3273,1 50191U 21125AM  23170.44938093  .00015850  00000-0  10111-2 0  9995,2 50191  53.2162  42.4373 0001206  68.3067 291.8053 15.08861481 86351,6917.815,95.436,540.514,538.845,0.0
50191.0,STARLINK-3273,PAYLOAD,2023-06-19 17:08:38,15.08861343,0.0001248,53.2165,41.2482,69.0227,291.0899,0.00072621,0.00011295,0.0,0 STARLINK-3273,1 50191U 21125AM  23170.71433892  .00011295  00000-0  72621-3 0  9996,2 50191  53.2165  41.2482 0001248  69.0227 291.0899 15.08861343 86395,6917.815,95.436,540.543,538.817,0.0
50191.0,STARLINK-3273,PAYLOAD,2023-06-19 21:54:47,15.08869147,0.0001225,53.2163,40.3558,69.6622,290.4501,0.00084374,0.00013176,0.0,0 STARLINK-3273,1 50191U 21125AM  23170.91305458  .00013176  00000-0  84374-3 0  9992,2 50191  53.2163  40.3558 0001225  69.6622 290.4501 15.08869147 83342,6917.791,95.436,540.504,538.809,0.0
50191.0,STARLINK-3273,PAYLOAD,2023-06-20 10:37:52,15.08861065,0.0001374,53.2147,37.9757,79.3531,280.7616,0.00016547,2.348e-05,0.0,0 STARLINK-3273,1 50191U 21125AM  23171.44297072  .00002348  00000-0  16547-3 0  9999,2 50191  53.2147  37.9757 0001374  79.3531 280.7616 15.08861065 86500,6917.816,95.436,540.632,538.73,0.0
50191.0,STARLINK-3273,PAYLOAD,2023-06-20 16:59:25,15.08844648,0.0001035,53.2167,36.7873,87.95,272.1611,-0.00014622,-2.614e-05,0.0,0 STARLINK-3273,1 50191U 21125AM  23171.70793134 -.00002614  00000-0 -14622-3 0  9998,2 50191  53.2167  36.7873 0001035  87.9500 272.1611 15.08844648 83463,6917.866,95.437,540.447,539.015,0.0
50191.0,STARLINK-3273,PAYLOAD,2023-06-20 20:10:11,15.0884736,0.0001113,53.2167,36.1923,89.3434,270.7686,8.8661e-05,1.124e-05,0.0,0 STARLINK-3273,1 50191U 21125AM  23171.84041071  .00001124  00000-0  88661-4 0  9997,2 50191  53.2167  36.1923 0001113  89.3434 270.7686 15.08847360 86566,6917.858,95.437,540.493,538.953,0.0
50191.0,STARLINK-3273,PAYLOAD,2023-06-21 00:56:20,15.08851265,0.0001093,53.2166,35.3005,87.5168,272.595,0.0004464,6.826e-05,0.0,0 STARLINK-3273,1 50191U 21125AM  23172.03913017  .00006826  00000-0  44640-3 0  9999,2 50191  53.2166  35.3005 0001093  87.5168 272.5950 15.08851265 83513,6917.846,95.437,540.467,538.955,0.0
50191.0,STARLINK-3273,PAYLOAD,2023-06-21 18:25:35,15.08837961,0.0001254,53.2172,32.027,111.5095,248.6031,0.00018579,2.67e-05,0.0,0 STARLINK-3273,1 50191U 21125AM  23172.76777340  .00002670  00000-0  18579-3 0  9991,2 50191  53.2172  32.0270 0001254 111.5095 248.6031 15.08837961 83627,6917.887,95.438,540.619,538.884,0.0
50191.0,STARLINK-3273,PAYLOAD,2023-06-21 20:00:58,15.08841666,0.0001156,53.2165,31.7302,109.4946,250.6171,5.5285e-05,5.92e-06,0.0,0 STARLINK-3273,1 50191U 21125AM  23172.83401214  .00000592  00000-0  55285-4 0  9990,2 50191  53.2165  31.7302 0001156 109.4946 250.6171 15.08841666 86711,6917.875,95.437,540.54,538.941,0.0
